[
    {
        "Altitude(m)": 554271.1028204629,
        "Argument of Periapsis(deg)": 0.026491964442854003,
        "Eccentricity": 0.0,
        "Inclination(deg)": 53.0,
        "Latitude(deg)": 24.58155830208161,
        "Longitude(deg)": -128.1349734256385,
        "Mean Anomaly(deg)": 31.275571470310307,
        "RAAN(deg)": 314.96057347411204,
        "Satellite Name": "Starlink Shell 1 1407",
        "Satellite Number": 1407,
        "Semi-Major Axis(m)": 6931778.249405717,
        "Time(s)": 760
    },
    {
        "Altitude(m)": 554329.1918612686,
        "Argument of Periapsis(deg)": 0.02684054292236524,
        "Eccentricity": 0.0,
        "Inclination(deg)": 53.0,
        "Latitude(deg)": 25.0536300103494,
        "Longitude(deg)": -127.71945116653264,
        "Mean Anomaly(deg)": 31.902402673867055,
        "RAAN(deg)": 314.9600547040346,
        "Satellite Name": "Starlink Shell 1 1407",
        "Satellite Number": 1407,
        "Semi-Major Axis(m)": 6931778.249405717,
        "Time(s)": 770
    },
    {
        "Altitude(m)": 554388.8923649971,
        "Argument of Periapsis(deg)": 0.027189121401876473,
        "Eccentricity": 0.0,
        "Inclination(deg)": 53.0,
        "Latitude(deg)": 25.52425712351453,
        "Longitude(deg)": -127.30042409571813,
        "Mean Anomaly(deg)": 32.5292338774238,
        "RAAN(deg)": 314.95953593395717,
        "Satellite Name": "Starlink Shell 1 1407",
        "Satellite Number": 1407,
        "Semi-Major Axis(m)": 6931778.249405717,
        "Time(s)": 780
    },
    {
        "Altitude(m)": 554450.1555355078,
        "Argument of Periapsis(deg)": 0.02753769988138771,
        "Eccentricity": 0.0,
        "Inclination(deg)": 53.0,
        "Latitude(deg)": 25.99339782388218,
        "Longitude(deg)": -126.87779998985535,
        "Mean Anomaly(deg)": 33.1560650809805,
        "RAAN(deg)": 314.95901716387965,
        "Satellite Name": "Starlink Shell 1 1407",
        "Satellite Number": 1407,
        "Semi-Major Axis(m)": 6931778.249405717,
        "Time(s)": 790
    },
    {
        "Altitude(m)": 554512.9319698496,
        "Argument of Periapsis(deg)": 0.02788627836089895,
        "Eccentricity": 0.0,
        "Inclination(deg)": 53.0,
        "Latitude(deg)": 26.461009412775383,
        "Longitude(deg)": -126.45148584387465,
        "Mean Anomaly(deg)": 33.78289628453714,
        "RAAN(deg)": 314.95849839380213,
        "Satellite Name": "Starlink Shell 1 1407",
        "Satellite Number": 1407,
        "Semi-Major Axis(m)": 6931778.249405717,
        "Time(s)": 800
    },
    {
        "Altitude(m)": 554577.1716848231,
        "Argument of Periapsis(deg)": 0.02823485684041019,
        "Eccentricity": 0.0,
        "Inclination(deg)": 53.0,
        "Latitude(deg)": 26.927048283018824,
        "Longitude(deg)": -126.02138735495586,
        "Mean Anomaly(deg)": 34.409727488093885,
        "RAAN(deg)": 314.9579796237247,
        "Satellite Name": "Starlink Shell 1 1407",
        "Satellite Number": 1407,
        "Semi-Major Axis(m)": 6931778.249405717,
        "Time(s)": 810
    },
    {
        "Altitude(m)": 554642.8241438066,
        "Argument of Periapsis(deg)": 0.028583435319921423,
        "Eccentricity": 0.0,
        "Inclination(deg)": 53.0,
        "Latitude(deg)": 27.391469890900908,
        "Longitude(deg)": -125.58740840848114,
        "Mean Anomaly(deg)": 35.03655869165063,
        "RAAN(deg)": 314.95746085364726,
        "Satellite Name": "Starlink Shell 1 1407",
        "Satellite Number": 1407,
        "Semi-Major Axis(m)": 6931778.249405717,
        "Time(s)": 820
    },
    {
        "Altitude(m)": 554709.8382838019,
        "Argument of Periapsis(deg)": 0.028932013799432665,
        "Eccentricity": 0.0,
        "Inclination(deg)": 53.0,
        "Latitude(deg)": 27.854228727623976,
        "Longitude(deg)": -125.1494520790207,
        "Mean Anomaly(deg)": 35.66338989520733,
        "RAAN(deg)": 314.95694208356974,
        "Satellite Name": "Starlink Shell 1 1407",
        "Satellite Number": 1407,
        "Semi-Major Axis(m)": 6931778.249405717,
        "Time(s)": 830
    },
    {
        "Altitude(m)": 554778.1625427171,
        "Argument of Periapsis(deg)": 0.029280592278943897,
        "Eccentricity": 0.0,
        "Inclination(deg)": 53.0,
        "Latitude(deg)": 28.31527829024948,
        "Longitude(deg)": -124.70742012081027,
        "Mean Anomaly(deg)": 36.29022109876398,
        "RAAN(deg)": 314.9564233134923,
        "Satellite Name": "Starlink Shell 1 1407",
        "Satellite Number": 1407,
        "Semi-Major Axis(m)": 6931778.249405717,
        "Time(s)": 840
    },
    {
        "Altitude(m)": 554847.7448868278,
        "Argument of Periapsis(deg)": 0.029629170758455132,
        "Eccentricity": 0.0,
        "Inclination(deg)": 53.0,
        "Latitude(deg)": 28.77457105215251,
        "Longitude(deg)": -124.26121246080942,
        "Mean Anomaly(deg)": 36.91705230232072,
        "RAAN(deg)": 314.9559045434148,
        "Satellite Name": "Starlink Shell 1 1407",
        "Satellite Number": 1407,
        "Semi-Major Axis(m)": 6931778.249405717,
        "Time(s)": 850
    },
    {
        "Altitude(m)": 554918.5328384684,
        "Argument of Periapsis(deg)": 0.02997774923796637,
        "Eccentricity": 0.0,
        "Inclination(deg)": 53.0,
        "Latitude(deg)": 29.232058433003772,
        "Longitude(deg)": -123.81072837554055,
        "Mean Anomaly(deg)": 37.54388350587752,
        "RAAN(deg)": 314.9553857733373,
        "Satellite Name": "Starlink Shell 1 1407",
        "Satellite Number": 1407,
        "Semi-Major Axis(m)": 6931778.249405717,
        "Time(s)": 860
    },
    {
        "Altitude(m)": 554990.4735038632,
        "Argument of Periapsis(deg)": 0.030326327717477602,
        "Eccentricity": 0.0,
        "Inclination(deg)": 53.0,
        "Latitude(deg)": 29.687690768294583,
        "Longitude(deg)": -123.35586514953212,
        "Mean Anomaly(deg)": 38.17071470943411,
        "RAAN(deg)": 314.9548670032599,
        "Satellite Name": "Starlink Shell 1 1407",
        "Satellite Number": 1407,
        "Semi-Major Axis(m)": 6931778.249405717,
        "Time(s)": 870
    },
    {
        "Altitude(m)": 555063.5136011534,
        "Argument of Periapsis(deg)": 0.030674906196988847,
        "Eccentricity": 0.0,
        "Inclination(deg)": 53.0,
        "Latitude(deg)": 30.14141727843376,
        "Longitude(deg)": -122.8965192585369,
        "Mean Anomaly(deg)": 38.797545912990905,
        "RAAN(deg)": 314.9543482331824,
        "Satellite Name": "Starlink Shell 1 1407",
        "Satellite Number": 1407,
        "Semi-Major Axis(m)": 6931778.249405717,
        "Time(s)": 880
    },
    {
        "Altitude(m)": 555137.5994885238,
        "Argument of Periapsis(deg)": 0.031023484676500086,
        "Eccentricity": 0.0,
        "Inclination(deg)": 53.0,
        "Latitude(deg)": 30.59318603743719,
        "Longitude(deg)": -122.43258587538143,
        "Mean Anomaly(deg)": 39.4243771165476,
        "RAAN(deg)": 314.9538294631049,
        "Satellite Name": "Starlink Shell 1 1407",
        "Satellite Number": 1407,
        "Semi-Major Axis(m)": 6931778.249405717,
        "Time(s)": 890
    },
    {
        "Altitude(m)": 555212.67719254,
        "Argument of Periapsis(deg)": 0.03137206315601132,
        "Eccentricity": 0.0,
        "Inclination(deg)": 53.0,
        "Latitude(deg)": 31.042943941246435,
        "Longitude(deg)": -121.96395837971208,
        "Mean Anomaly(deg)": 40.0512083201043,
        "RAAN(deg)": 314.9533106930275,
        "Satellite Name": "Starlink Shell 1 1407",
        "Satellite Number": 1407,
        "Semi-Major Axis(m)": 6931778.249405717,
        "Time(s)": 900
    },
    {
        "Altitude(m)": 555288.6924365246,
        "Argument of Periapsis(deg)": 0.03172064163552255,
        "Eccentricity": 0.0,
        "Inclination(deg)": 53.0,
        "Latitude(deg)": 31.490636675711897,
        "Longitude(deg)": -121.49052938482616,
        "Mean Anomaly(deg)": 40.678039523661,
        "RAAN(deg)": 314.95279192295,
        "Satellite Name": "Starlink Shell 1 1407",
        "Satellite Number": 1407,
        "Semi-Major Axis(m)": 6931778.249405717,
        "Time(s)": 910
    },
    {
        "Altitude(m)": 555365.5906690977,
        "Argument of Periapsis(deg)": 0.0320692201150338,
        "Eccentricity": 0.0,
        "Inclination(deg)": 53.0,
        "Latitude(deg)": 31.936208684280384,
        "Longitude(deg)": -121.0121902561738,
        "Mean Anomaly(deg)": 41.30487072721775,
        "RAAN(deg)": 314.95227315287246,
        "Satellite Name": "Starlink Shell 1 1407",
        "Satellite Number": 1407,
        "Semi-Major Axis(m)": 6931778.249405717,
        "Time(s)": 920
    },
    {
        "Altitude(m)": 555443.3170927698,
        "Argument of Periapsis(deg)": 0.032417798594545036,
        "Eccentricity": 0.0,
        "Inclination(deg)": 53.0,
        "Latitude(deg)": 32.379603135434216,
        "Longitude(deg)": -120.52883063475922,
        "Mean Anomaly(deg)": 41.93170193077449,
        "RAAN(deg)": 314.951754382795,
        "Satellite Name": "Starlink Shell 1 1407",
        "Satellite Number": 1407,
        "Semi-Major Axis(m)": 6931778.249405717,
        "Time(s)": 930
    },
    {
        "Altitude(m)": 555521.816692628,
        "Argument of Periapsis(deg)": 0.03276637707405627,
        "Eccentricity": 0.0,
        "Inclination(deg)": 53.0,
        "Latitude(deg)": 32.82076188993832,
        "Longitude(deg)": -120.0403394786817,
        "Mean Anomaly(deg)": 42.558533134331185,
        "RAAN(deg)": 314.95123561271754,
        "Satellite Name": "Starlink Shell 1 1407",
        "Satellite Number": 1407,
        "Semi-Major Axis(m)": 6931778.249405717,
        "Time(s)": 940
    }
]